{"type": "FeatureCollection", "features": [ {"type": "Feature", "properties": {"norad_id": 44542, "name": "BEIDOU-3 M24 (C46)", "group": "beidou", "lat": 47.91964519391033, "lon": -43.560669236808536, "alt_km": 21522.382554967295, "timestamp": "2025-12-14T16:47:40.949151+00:00", "meta": {"OBJECT_NAME": "BEIDOU-3 M24 (C46)", "OBJECT_ID": "2019-061A", "EPOCH": "2025-12-11T20:16:59.930112", "MEAN_MOTION": 1.86229199, "ECCENTRICITY": 0.00095416, "INCLINATION": 54.4002, "RA_OF_ASC_NODE": 189.0463, "ARG_OF_PERICENTER": 24.13, "MEAN_ANOMALY": 335.9744, "EPHEMERIS_TYPE": 0, "CLASSIFICATION_TYPE": "U", "NORAD_CAT_ID": 44542, "ELEMENT_SET_NO": 999, "REV_AT_EPOCH": 4230, "BSTAR": 0, "MEAN_MOTION_DOT": 7.3e-07, "MEAN_MOTION_DDOT": 0}, "tle": {"line1": "1 44542U 19061A   25345.84513808  .00000073  00000+0  00000+0 0  9990", "line2": "2 44542  54.4002 189.0463 0009541  24.1300 335.9744  1.86229199 42307"}}, "geometry": {"type": "Point", "coordinates": [-43.560669236808536, 47.91964519391033]}}, {"type": "Feature", "properties": {"norad_id": 44543, "name": "BEIDOU-3 M23 (C45)", "group": "beidou", "lat": 21.40850919893652, "lon": -154.75943658076022, "alt_km": 21508.68777082778, "timestamp": "2025-12-14T16:47:40.949167+00:00", "meta": {"OBJECT_NAME": "BEIDOU-3 M23 (C45)", "OBJECT_ID": "2019-061B", "EPOCH": "2025-12-12T05:53:39.748416", "MEAN_MOTION": 1.86227487, "ECCENTRICITY": 0.00061471, "INCLINATION": 54.3988, "RA_OF_ASC_NODE": 189.0008, "ARG_OF_PERICENTER": 23.325, "MEAN_ANOMALY": 158.0349, "EPHEMERIS_TYPE": 0, "CLASSIFICATION_TYPE": "U", "NORAD_CAT_ID": 44543, "ELEMENT_SET_NO": 999, "REV_AT_EPOCH": 4231, "BSTAR": 0, "MEAN_MOTION_DOT": 7.9e-07, "MEAN_MOTION_DDOT": 0}, "tle": {"line1": "1 44543U 19061B   25346.24559894  .00000079  00000+0  00000+0 0  9997", "line2": "2 44543  54.3988 189.0008 0006147  23.3250 158.0349  1.86227487 42313"}}, "geometry": {"type": "Point", "coordinates": [-154.75943658076022, 21.40850919893652]}}, {"type": "Feature", "properties": {"norad_id": 44709, "name": "BEIDOU-3 IGSO-3 (C40)", "group": "beidou", "lat": 11.847425147741864, "lon": 94.46496086184364, "alt_km": 35623.931958381225, "timestamp": "2025-12-14T16:47:40.949180+00:00", "meta": {"OBJECT_NAME": "BEIDOU-3 IGSO-3 (C40)", "OBJECT_ID": "2019-073A", "EPOCH": "2025-11-20T07:11:22.740000", "MEAN_MOTION": 1.00250097, "ECCENTRICITY": 0.0044538, "INCLINATION": 55.163, "RA_OF_ASC_NODE": 283.159, "ARG_OF_PERICENTER": 191.5856, "MEAN_ANOMALY": 168.2409, "EPHEMERIS_TYPE": 0, "CLASSIFICATION_TYPE": "U", "NORAD_CAT_ID": 44709, "ELEMENT_SET_NO": 999, "REV_AT_EPOCH": 2236, "BSTAR": 0, "MEAN_MOTION_DOT": -2.06e-06, "MEAN_MOTION_DDOT": 0}, "tle": {"line1": "1 44709U 19073A   25324.29956875 -.00000206  00000+0  00000+0 0  9998", "line2": "2 44709  55.1630 283.1590 0044538 191.5856 168.2409  1.00250097 22360"}}, "geometry": {"type": "Point", "coordinates": [94.46496086184364, 11.847425147741864]}}, {"type": "Feature", "properties": {"norad_id": 44793, "name": "BEIDOU-3 M22 (C44)", "group": "beidou", "lat": -32.236807808439295, "lon": 153.4501763921904, "alt_km": 21547.191856566755, "timestamp": "2025-12-14T16:47:40.949196+00:00", "meta": {"OBJECT_NAME": "BEIDOU-3 M22 (C44)", "OBJECT_ID": "2019-078A", "EPOCH": "2025-12-13T07:06:19.529568", "MEAN_MOTION": 1.86231771, "ECCENTRICITY": 0.00057339, "INCLINATION": 54.1075, "RA_OF_ASC_NODE": 306.366, "ARG_OF_PERICENTER": 23.2965, "MEAN_ANOMALY": 336.7192, "EPHEMERIS_TYPE": 0, "CLASSIFICATION_TYPE": "U", "NORAD_CAT_ID": 44793, "ELEMENT_SET_NO": 999, "REV_AT_EPOCH": 4118, "BSTAR": 0, "MEAN_MOTION_DOT": -9.7e-07, "MEAN_MOTION_DDOT": 0}, "tle": {"line1": "1 44793U 19078A   25347.29605937 -.00000097  00000+0  00000+0 0  9999", "line2": "2 44793  54.1075 306.3660 0005733  23.2965 336.7192  1.86231771 41181"}}, "geometry": {"type": "Point", "coordinates": [153.4501763921904, -32.236807808439295]}}, {"type": "Feature", "properties": {"norad_id": 44794, "name": "BEIDOU-3 M21 (C43)", "group": "beidou", "lat": 39.07774651241765, "lon": 90.23039395953728, "alt_km": 21528.866917733838, "timestamp": "2025-12-14T16:47:40.949207+00:00", "meta": {"OBJECT_NAME": "BEIDOU-3 M21 (C43)", "OBJECT_ID": "2019-078B", "EPOCH": "2025-12-12T21:31:22.326816", "MEAN_MOTION": 1.86227454, "ECCENTRICITY": 0.00039343, "INCLINATION": 54.0813, "RA_OF_ASC_NODE": 306.3451, "ARG_OF_PERICENTER": 10.3646, "MEAN_ANOMALY": 349.6338, "EPHEMERIS_TYPE": 0, "CLASSIFICATION_TYPE": "U", "NORAD_CAT_ID": 44794, "ELEMENT_SET_NO": 999, "REV_AT_EPOCH": 4118, "BSTAR": 0, "MEAN_MOTION_DOT": -9.6e-07, "MEAN_MOTION_DDOT": 0}, "tle": {"line1": "1 44794U 19078B   25346.89678619 -.00000096  00000+0  00000+0 0  9991", "line2": "2 44794  54.0813 306.3451 0003934  10.3646 349.6338  1.86227454 41181"}}, "geometry": {"type": "Point", "coordinates": [90.23039395953728, 39.07774651241765]}}, {"type": "Feature", "properties": {"norad_id": 44864, "name": "BEIDOU-3 M19 (C41)", "group": "beidou", "lat": -28.785170925786336, "lon": 47.50672064947144, "alt_km": 21493.274764428596, "timestamp": "2025-12-14T16:47:40.949219+00:00", "meta": {"OBJECT_NAME": "BEIDOU-3 M19 (C41)", "OBJECT_ID": "2019-090A", "EPOCH": "2025-12-10T23:47:39.658272", "MEAN_MOTION": 1.86231263, "ECCENTRICITY": 0.0017877, "INCLINATION": 56.392, "RA_OF_ASC_NODE": 69.0187, "ARG_OF_PERICENTER": 285.2046, "MEAN_ANOMALY": 73.1126, "EPHEMERIS_TYPE": 0, "CLASSIFICATION_TYPE": "U", "NORAD_CAT_ID": 44864, "ELEMENT_SET_NO": 999, "REV_AT_EPOCH": 4072, "BSTAR": 0, "MEAN_MOTION_DOT": -6e-07, "MEAN_MOTION_DDOT": 0}, "tle": {"line1": "1 44864U 19090A   25344.99143123 -.00000060  00000+0  00000+0 0  9990", "line2": "2 44864  56.3920  69.0187 0017877 285.2046  73.1126  1.86231263 40726"}}, "geometry": {"type": "Point", "coordinates": [47.50672064947144, -28.785170925786336]}}, {"type": "Feature", "properties": {"norad_id": 44865, "name": "BEIDOU-3 M20 (C42)", "group": "beidou", "lat": 42.5967036575146, "lon": 106.56119818778147, "alt_km": 21541.242327404856, "timestamp": "2025-12-14T16:47:40.949230+00:00", "meta": {"OBJECT_NAME": "BEIDOU-3 M20 (C42)", "OBJECT_ID": "2019-090B", "EPOCH": "2025-12-10T20:36:05.507712", "MEAN_MOTION": 1.86231317, "ECCENTRICITY": 0.0014897, "INCLINATION": 56.3937, "RA_OF_ASC_NODE": 69.0576, "ARG_OF_PERICENTER": 298.003, "MEAN_ANOMALY": 60.7372, "EPHEMERIS_TYPE": 0, "CLASSIFICATION_TYPE": "U", "NORAD_CAT_ID": 44865, "ELEMENT_SET_NO": 999, "REV_AT_EPOCH": 4070, "BSTAR": 0, "MEAN_MOTION_DOT": -5.8e-07, "MEAN_MOTION_DDOT": 0}, "tle": {"line1": "1 44865U 19090B   25344.85839708 -.00000058  00000+0  00000+0 0  9994", "line2": "2 44865  56.3937  69.0576 0014897 298.0030  60.7372  1.86231317 40704"}}, "geometry": {"type": "Point", "coordinates": [106.56119818778147, 42.5967036575146]}}, {"type": "Feature", "properties": {"norad_id": 45344, "name": "BEIDOU-3 G2 (C60)", "group": "beidou", "lat": 0.5286715737893957, "lon": 55.60393869435411, "alt_km": 35789.950005883984, "timestamp": "2025-12-14T16:47:40.949242+00:00", "meta": {"OBJECT_NAME": "BEIDOU-3 G2 (C60)", "OBJECT_ID": "2020-017A", "EPOCH": "2025-12-14T00:06:06.851808", "MEAN_MOTION": 1.00273045, "ECCENTRICITY": 0.00044407, "INCLINATION": 2.4998, "RA_OF_ASC_NODE": 43.8817, "ARG_OF_PERICENTER": 268.7357, "MEAN_ANOMALY": 211.8758, "EPHEMERIS_TYPE": 0, "CLASSIFICATION_TYPE": "U", "NORAD_CAT_ID": 45344, "ELEMENT_SET_NO": 999, "REV_AT_EPOCH": 2140, "BSTAR": 0, "MEAN_MOTION_DOT": -1.25e-06, "MEAN_MOTION_DDOT": 0}, "tle": {"line1": "1 45344U 20017A   25348.00424597 -.00000125  00000+0  00000+0 0  9990", "line2": "2 45344   2.4998  43.8817 0004440 268.7357 211.8758  1.00273045 21406"}}, "geometry": {"type": "Point", "coordinates": [55.60393869435411, 0.5286715737893957]}}, {"type": "Feature", "properties": {"norad_id": 45807, "name": "BEIDOU-3 G3 (C61)", "group": "beidou", "lat": 0.6909683287429379, "lon": 86.14751132299214, "alt_km": 35778.30871727967, "timestamp": "2025-12-14T16:47:40.949254+00:00", "meta": {"OBJECT_NAME": "BEIDOU-3 G3 (C61)", "OBJECT_ID": "2020-040A", "EPOCH": "2025-12-08T17:33:17.532288", "MEAN_MOTION": 1.00275813, "ECCENTRICITY": 0.00060306, "INCLINATION": 1.9816, "RA_OF_ASC_NODE": 66.5886, "ARG_OF_PERICENTER": 306.262, "MEAN_ANOMALY": 78.7159, "EPHEMERIS_TYPE": 0, "CLASSIFICATION_TYPE": "U", "NORAD_CAT_ID": 45807, "ELEMENT_SET_NO": 999, "REV_AT_EPOCH": 2016, "BSTAR": 0, "MEAN_MOTION_DOT": -3.52e-06, "MEAN_MOTION_DDOT": 0}, "tle": {"line1": "1 45807U 20040A   25342.73145292 -.00000352  00000+0  00000+0 0  9998", "line2": "2 45807   1.9816  66.5886 0006030 306.2620  78.7159  1.00275813 20161"}}, "geometry": {"type": "Point", "coordinates": [86.14751132299214, 0.6909683287429379]}}, {"type": "Feature", "properties": {"norad_id": 56564, "name": "BEIDOU-3 G4 (C62)", "group": "beidou", "lat": -0.18261978479527885, "lon": 135.56627559895207, "alt_km": 35776.62598144232, "timestamp": "2025-12-14T16:47:40.949267+00:00", "meta": {"OBJECT_NAME": "BEIDOU-3 G4 (C62)", "OBJECT_ID": "2023-066A", "EPOCH": "2025-12-13T22:46:14.503008", "MEAN_MOTION": 1.00271707, "ECCENTRICITY": 0.00028539, "INCLINATION": 0.8119, "RA_OF_ASC_NODE": 302.15, "ARG_OF_PERICENTER": 230.7553, "MEAN_ANOMALY": 51.5933, "EPHEMERIS_TYPE": 0, "CLASSIFICATION_TYPE": "U", "NORAD_CAT_ID": 56564, "ELEMENT_SET_NO": 999, "REV_AT_EPOCH": 953, "BSTAR": 0, "MEAN_MOTION_DOT": -9.4e-07, "MEAN_MOTION_DDOT": 0}, "tle": {"line1": "1 56564U 23066A   25347.94877897 -.00000094  00000+0  00000+0 0  9995", "line2": "2 56564   0.8119 302.1500 0002853 230.7553  51.5933  1.00271707  9539"}}, "geometry": {"type": "Point", "coordinates": [135.56627559895207, -0.18261978479527885]}}]}